*******************************************************************************
Ephemeris / WWW_USER Mon Mar 10 08:43:29 2025 Pasadena, USA      / Horizons    
*******************************************************************************
Target body name: (2018 PL28)                     {source: JPL#6}
Center body name: Earth (399)                     {source: DE441}
Center-site name: Mauna Kea
*******************************************************************************
Start time      : A.D. 2018-Dec-24 03:59:00.0000 UT      
Stop  time      : A.D. 2018-Dec-24 16:43:00.0000 UT      
Step-size       : 1 minutes
*******************************************************************************
Target pole/equ : undefined
Target radii    : undefined                                                    
Center geodetic : 204.5278, 19.8260847, 4.21024   {E-lon(deg),Lat(deg),Alt(km)}
Center cylindric: 204.5278, 6006.35451, 2151.0229 {E-lon(deg),Dxy(km),Dz(km)}
Center pole/equ : ITRF93                          {East-longitude positive}
Center radii    : 6378.137, 6378.137, 6356.752 km {Equator_a, b, pole_c}       
Target primary  : Sun
Vis. interferer : MOON (R_eq= 1737.400) km        {source: DE441}
Rel. light bend : Sun                             {source: DE441}
Rel. lght bnd GM: 1.3271E+11 km^3/s^2                                          
Small-body perts: Yes                             {source: SB441-N16}
Atmos refraction: NO (AIRLESS)
RA format       : HMS
Time format     : CAL 
Calendar mode   : Mixed Julian/Gregorian
RTS-only print  : NO       
EOP file        : eop.250307.p250603                                           
EOP coverage    : DATA-BASED 1962-JAN-20 TO 2025-MAR-07. PREDICTS-> 2025-JUN-02
Units conversion: 1 au= 149597870.700 km, c= 299792.458 km/s, 1 day= 86400.0 s 
Table cut-offs 1: Elevation (-90.0deg=NO ),Airmass (>38.000=NO), Daylight (YES)
Table cut-offs 2: Solar elongation (  0.0,180.0=NO ),Local Hour Angle( 0.0=NO )
Table cut-offs 3: RA/DEC angular rate (     0.0=NO )                           
*******************************************************************************
Initial IAU76/J2000 heliocentric ecliptic osculating elements (au, days, deg.):
  EPOCH=  2457854.5 ! 2017-Apr-11.00 (TDB)         Residual RMS= .19092        
   EC= .8623380004677549   QR= 2.686075926237564   TP= 2457951.5509793968      
   OM= 350.7805373480467   W=  275.0956674869335   IN= 74.19591911353062       
  Equivalent ICRF heliocentric cartesian coordinates (au, au/d):
   X=-1.230595634603956E+00  Y= 5.216934222523280E-01  Z=-2.512561684350396E+00
  VX= 1.337943797263742E-02 VY=-1.672601025687851E-03 VZ=-3.313586071138778E-03
Asteroid physical parameters (km, seconds, rotational period in hours):        
   GM= n.a.                RAD= n.a.               ROTPER= n.a.                
   H= 14.87                G= .150                 B-V= n.a.                   
                           ALBEDO= n.a.            STYP= n.a.                  
*******************************************************************************
 Date__(UT)__HR:MN     R.A._________(ICRF)_________DEC
******************************************************
$$SOE
 2018-Dec-24 14:14  m  22 44 59.158359 +01 28 48.53903
 2018-Dec-24 14:15  m  22 44 59.169584 +01 28 48.73092
 2018-Dec-24 14:16  m  22 44 59.180809 +01 28 48.92282
 2018-Dec-24 14:17  m  22 44 59.192035 +01 28 49.11471
 2018-Dec-24 14:18  m  22 44 59.203261 +01 28 49.30661
 2018-Dec-24 14:19  m  22 44 59.214488 +01 28 49.49851
 2018-Dec-24 14:20  m  22 44 59.225715 +01 28 49.69042
 2018-Dec-24 14:21  m  22 44 59.236943 +01 28 49.88232
 2018-Dec-24 14:22  m  22 44 59.248172 +01 28 50.07423
 2018-Dec-24 14:23  m  22 44 59.259401 +01 28 50.26614
 2018-Dec-24 14:24  m  22 44 59.270630 +01 28 50.45805
 2018-Dec-24 14:25  m  22 44 59.281860 +01 28 50.64996
 2018-Dec-24 14:26  m  22 44 59.293091 +01 28 50.84188
 2018-Dec-24 14:27  m  22 44 59.304322 +01 28 51.03379
 2018-Dec-24 14:28  m  22 44 59.315553 +01 28 51.22571
 2018-Dec-24 14:29  m  22 44 59.326785 +01 28 51.41763
 2018-Dec-24 14:30  m  22 44 59.338017 +01 28 51.60955
 2018-Dec-24 14:31  m  22 44 59.349250 +01 28 51.80148
 2018-Dec-24 14:32  m  22 44 59.360483 +01 28 51.99340
 2018-Dec-24 14:33  m  22 44 59.371717 +01 28 52.18533
 2018-Dec-24 14:34  m  22 44 59.382951 +01 28 52.37726
 2018-Dec-24 14:35  m  22 44 59.394186 +01 28 52.56919
 2018-Dec-24 14:36  m  22 44 59.405421 +01 28 52.76113
 2018-Dec-24 14:37  m  22 44 59.416656 +01 28 52.95306
 2018-Dec-24 14:38  m  22 44 59.427892 +01 28 53.14500
 2018-Dec-24 14:39  m  22 44 59.439128 +01 28 53.33694
 2018-Dec-24 14:40  m  22 44 59.450365 +01 28 53.52888
 2018-Dec-24 14:41  m  22 44 59.461602 +01 28 53.72082
 2018-Dec-24 14:42  m  22 44 59.472839 +01 28 53.91277
 2018-Dec-24 14:43  m  22 44 59.484077 +01 28 54.10471
 2018-Dec-24 14:44  m  22 44 59.495315 +01 28 54.29666
 2018-Dec-24 14:45  m  22 44 59.506553 +01 28 54.48861
 2018-Dec-24 14:46  m  22 44 59.517792 +01 28 54.68057
 2018-Dec-24 14:47  m  22 44 59.529031 +01 28 54.87252
 2018-Dec-24 14:48  m  22 44 59.540270 +01 28 55.06448
 2018-Dec-24 14:49  m  22 44 59.551509 +01 28 55.25643
 2018-Dec-24 14:50  m  22 44 59.562749 +01 28 55.44839
 2018-Dec-24 14:51  m  22 44 59.573990 +01 28 55.64036
 2018-Dec-24 14:52  m  22 44 59.585230 +01 28 55.83232
 2018-Dec-24 14:53  m  22 44 59.596471 +01 28 56.02429
 2018-Dec-24 14:54  m  22 44 59.607712 +01 28 56.21625
 2018-Dec-24 14:55  m  22 44 59.618953 +01 28 56.40822
 2018-Dec-24 14:56  m  22 44 59.630195 +01 28 56.60019
 2018-Dec-24 14:57  m  22 44 59.641436 +01 28 56.79217
 2018-Dec-24 14:58  m  22 44 59.652678 +01 28 56.98414
 2018-Dec-24 14:59  m  22 44 59.663921 +01 28 57.17612
 2018-Dec-24 15:00  m  22 44 59.675163 +01 28 57.36810
 2018-Dec-24 15:01  m  22 44 59.686406 +01 28 57.56008
 2018-Dec-24 15:02  m  22 44 59.697649 +01 28 57.75206
 2018-Dec-24 15:03  m  22 44 59.708892 +01 28 57.94405
 2018-Dec-24 15:04  m  22 44 59.720135 +01 28 58.13603
 2018-Dec-24 15:05  m  22 44 59.731378 +01 28 58.32802
 2018-Dec-24 15:06  m  22 44 59.742622 +01 28 58.52001
 2018-Dec-24 15:07  m  22 44 59.753865 +01 28 58.71200
 2018-Dec-24 15:08  m  22 44 59.765109 +01 28 58.90400
 2018-Dec-24 15:09  m  22 44 59.776353 +01 28 59.09599
 2018-Dec-24 15:10  m  22 44 59.787597 +01 28 59.28799
 2018-Dec-24 15:11  m  22 44 59.798842 +01 28 59.47999
 2018-Dec-24 15:12  m  22 44 59.810086 +01 28 59.67199
 2018-Dec-24 15:13  m  22 44 59.821331 +01 28 59.86400
 2018-Dec-24 15:14  m  22 44 59.832575 +01 29 00.05600
 2018-Dec-24 15:15  m  22 44 59.843820 +01 29 00.24801
 2018-Dec-24 15:16  m  22 44 59.855065 +01 29 00.44002
 2018-Dec-24 15:17  m  22 44 59.866309 +01 29 00.63203
 2018-Dec-24 15:18  m  22 44 59.877554 +01 29 00.82404
 2018-Dec-24 15:19  m  22 44 59.888799 +01 29 01.01606
 2018-Dec-24 15:20  m  22 44 59.900044 +01 29 01.20807
 2018-Dec-24 15:21  m  22 44 59.911289 +01 29 01.40009
 2018-Dec-24 15:22  m  22 44 59.922534 +01 29 01.59211
 2018-Dec-24 15:23  m  22 44 59.933780 +01 29 01.78413
 2018-Dec-24 15:24  m  22 44 59.945025 +01 29 01.97616
 2018-Dec-24 15:25  m  22 44 59.956270 +01 29 02.16818
 2018-Dec-24 15:26  m  22 44 59.967515 +01 29 02.36021
 2018-Dec-24 15:27  m  22 44 59.978760 +01 29 02.55224
 2018-Dec-24 15:28  m  22 44 59.990005 +01 29 02.74427
 2018-Dec-24 15:29  m  22 45 00.001250 +01 29 02.93631
 2018-Dec-24 15:30  m  22 45 00.012495 +01 29 03.12834
 2018-Dec-24 15:31  m  22 45 00.023741 +01 29 03.32038
 2018-Dec-24 15:32  m  22 45 00.034985 +01 29 03.51242
 2018-Dec-24 15:33  m  22 45 00.046230 +01 29 03.70446
 2018-Dec-24 15:34  m  22 45 00.057475 +01 29 03.89650
 2018-Dec-24 15:35 Am  22 45 00.068720 +01 29 04.08855
 2018-Dec-24 15:36 Am  22 45 00.079965 +01 29 04.28060
 2018-Dec-24 15:37 Am  22 45 00.091209 +01 29 04.47265
 2018-Dec-24 15:38 Am  22 45 00.102454 +01 29 04.66470
 2018-Dec-24 15:39 Am  22 45 00.113698 +01 29 04.85675
 2018-Dec-24 15:40 Am  22 45 00.124943 +01 29 05.04880
 2018-Dec-24 15:41 Am  22 45 00.136187 +01 29 05.24086
 2018-Dec-24 15:42 Am  22 45 00.147431 +01 29 05.43292
 2018-Dec-24 15:43 Am  22 45 00.158675 +01 29 05.62498
 2018-Dec-24 15:44 Am  22 45 00.169919 +01 29 05.81704
 2018-Dec-24 15:45 Am  22 45 00.181162 +01 29 06.00910
 2018-Dec-24 15:46 Am  22 45 00.192406 +01 29 06.20117
 2018-Dec-24 15:47 Am  22 45 00.203649 +01 29 06.39324
 2018-Dec-24 15:48 Am  22 45 00.214892 +01 29 06.58531
 2018-Dec-24 15:49 Am  22 45 00.226135 +01 29 06.77738
 2018-Dec-24 15:50 Am  22 45 00.237378 +01 29 06.96945
 2018-Dec-24 15:51 Am  22 45 00.248620 +01 29 07.16153
 2018-Dec-24 15:52 Am  22 45 00.259863 +01 29 07.35360
 2018-Dec-24 15:53 Am  22 45 00.271105 +01 29 07.54568
 2018-Dec-24 15:54 Am  22 45 00.282347 +01 29 07.73776
 2018-Dec-24 15:55 Am  22 45 00.293588 +01 29 07.92985
 2018-Dec-24 15:56 Am  22 45 00.304830 +01 29 08.12193
 2018-Dec-24 15:57 Am  22 45 00.316071 +01 29 08.31402
 2018-Dec-24 15:58 Am  22 45 00.327312 +01 29 08.50611
 2018-Dec-24 15:59 Am  22 45 00.338552 +01 29 08.69820
 2018-Dec-24 16:00 Am  22 45 00.349793 +01 29 08.89029
 2018-Dec-24 16:01 Am  22 45 00.361033 +01 29 09.08238
 2018-Dec-24 16:02 Am  22 45 00.372272 +01 29 09.27448
 2018-Dec-24 16:03 Nm  22 45 00.383512 +01 29 09.46658
 2018-Dec-24 16:04 Nm  22 45 00.394751 +01 29 09.65868
 2018-Dec-24 16:05 Nm  22 45 00.405990 +01 29 09.85078
 2018-Dec-24 16:06 Nm  22 45 00.417229 +01 29 10.04288
 2018-Dec-24 16:07 Nm  22 45 00.428467 +01 29 10.23499
 2018-Dec-24 16:08 Nm  22 45 00.439705 +01 29 10.42709
 2018-Dec-24 16:09 Nm  22 45 00.450942 +01 29 10.61920
 2018-Dec-24 16:10 Nm  22 45 00.462179 +01 29 10.81131
 2018-Dec-24 16:11 Nm  22 45 00.473416 +01 29 11.00342
 2018-Dec-24 16:12 Nm  22 45 00.484653 +01 29 11.19554
 2018-Dec-24 16:13 Nm  22 45 00.495889 +01 29 11.38765
 2018-Dec-24 16:14 Nm  22 45 00.507124 +01 29 11.57977
 2018-Dec-24 16:15 Nm  22 45 00.518360 +01 29 11.77189
 2018-Dec-24 16:16 Nm  22 45 00.529595 +01 29 11.96401
